{
  "type": "FeatureCollection",
  "features": [
    {
      "type": "Feature",
      "properties": {
        "norad_id": 30453,
        "name": "FENGYUN 1C DEB",
        "group": "fengyun-1c-debris",
        "lat": 81.03169548207458,
        "lon": -51.858809247280206,
        "alt_km": 881.262901810579,
        "timestamp": "2025-12-02T23:34:15.792886+00:00",
        "meta_object_name": "FENGYUN 1C DEB",
        "meta_object_id": "1999-025AFQ",
        "meta_epoch": "2025-12-02T11:23:27.257856",
        "meta_mean_motion": 14.24628239,
        "meta_eccentricity": 0.0115141,
        "meta_inclination": 98.8144,
        "meta_ra_of_asc_node": 48.1517,
        "meta_arg_of_pericenter": 255.9092,
        "meta_mean_anomaly": 114.7485,
        "meta_ephemeris_type": 0,
        "meta_classification_type": "U",
        "meta_norad_cat_id": 30453,
        "meta_element_set_no": 999,
        "meta_rev_at_epoch": 97088,
        "meta_bstar": 0.0019779,
        "meta_mean_motion_dot": 4.881e-05,
        "meta_mean_motion_ddot": 0,
        "tle_line1": "1 30453U 99025AFQ 25336.47462104  .00004881  00000+0  19779-2 0  9992",
        "tle_line2": "2 30453  98.8144  48.1517 0115141 255.9092 114.7485 14.24628239970885"
      },
      "geometry": {
        "type": "Point",
        "coordinates": [
          -51.858809247280206,
          81.03169548207458
        ]
      }
    },
    {
      "type": "Feature",
      "properties": {
        "norad_id": 30454,
        "name": "FENGYUN 1C DEB",
        "group": "fengyun-1c-debris",
        "lat": 60.35556759255077,
        "lon": -66.4856820968051,
        "alt_km": 953.5841757139697,
        "timestamp": "2025-12-02T23:34:15.792896+00:00",
        "meta_object_name": "FENGYUN 1C DEB",
        "meta_object_id": "1999-025AFR",
        "meta_epoch": "2025-12-01T22:06:05.435136",
        "meta_mean_motion": 14.15238704,
        "meta_eccentricity": 0.01716947,
        "meta_inclination": 98.1332,
        "meta_ra_of_asc_node": 307.0988,
        "meta_arg_of_pericenter": 226.9763,
        "meta_mean_anomaly": 191.3119,
        "meta_ephemeris_type": 0,
        "meta_classification_type": "U",
        "meta_norad_cat_id": 30454,
        "meta_element_set_no": 999,
        "meta_rev_at_epoch": 95807,
        "meta_bstar": 0.0023713704,
        "meta_mean_motion_dot": 5.281e-05,
        "meta_mean_motion_ddot": 0,
        "tle_line1": "1 30454U 99025AFR 25335.92089624  .00005281  00000+0  23714-2 0  9993",
        "tle_line2": "2 30454  98.1332 307.0988 0171694 226.9763 191.3119 14.15238704958071"
      },
      "geometry": {
        "type": "Point",
        "coordinates": [
          -66.4856820968051,
          60.35556759255077
        ]
      }
    },
    {
      "type": "Feature",
      "properties": {
        "norad_id": 30462,
        "name": "FENGYUN 1C DEB",
        "group": "fengyun-1c-debris",
        "lat": 59.22879431660916,
        "lon": 160.5859744102292,
        "alt_km": 959.7890397474721,
        "timestamp": "2025-12-02T23:34:15.792906+00:00",
        "meta_object_name": "FENGYUN 1C DEB",
        "meta_object_id": "1999-025AFZ",
        "meta_epoch": "2025-12-02T11:39:44.172288",
        "meta_mean_motion": 14.06252155,
        "meta_eccentricity": 0.0138846,
        "meta_inclination": 98.8161,
        "meta_ra_of_asc_node": 324.9948,
        "meta_arg_of_pericenter": 279.214,
        "meta_mean_anomaly": 210.3074,
        "meta_ephemeris_type": 0,
        "meta_classification_type": "U",
        "meta_norad_cat_id": 30462,
        "meta_element_set_no": 999,
        "meta_rev_at_epoch": 96649,
        "meta_bstar": 0.00036283,
        "meta_mean_motion_dot": 6.08e-06,
        "meta_mean_motion_ddot": 0,
        "tle_line1": "1 30462U 99025AFZ 25336.48592792  .00000608  00000+0  36283-3 0  9993",
        "tle_line2": "2 30462  98.8161 324.9948 0138846 279.2140 210.3074 14.06252155966496"
      },
      "geometry": {
        "type": "Point",
        "coordinates": [
          160.5859744102292,
          59.22879431660916
        ]
      }
    },
    {
      "type": "Feature",
      "properties": {
        "norad_id": 30464,
        "name": "FENGYUN 1C DEB",
        "group": "fengyun-1c-debris",
        "lat": 33.01929141889555,
        "lon": 21.649093298651064,
        "alt_km": 878.8038397038617,
        "timestamp": "2025-12-02T23:34:15.792917+00:00",
        "meta_object_name": "FENGYUN 1C DEB",
        "meta_object_id": "1999-025AGB",
        "meta_epoch": "2025-12-02T03:14:30.651936",
        "meta_mean_motion": 14.10239259,
        "meta_eccentricity": 0.01082914,
        "meta_inclination": 98.8388,
        "meta_ra_of_asc_node": 26.6204,
        "meta_arg_of_pericenter": 288.8029,
        "meta_mean_anomaly": 125.6043,
        "meta_ephemeris_type": 0,
        "meta_classification_type": "U",
        "meta_norad_cat_id": 30464,
        "meta_element_set_no": 999,
        "meta_rev_at_epoch": 96914,
        "meta_bstar": 0.00010667825,
        "meta_mean_motion_dot": 1.55e-06,
        "meta_mean_motion_ddot": 0,
        "tle_line1": "1 30464U 99025AGB 25336.13507699  .00000155  00000+0  10668-3 0  9995",
        "tle_line2": "2 30464  98.8388  26.6204 0108291 288.8029 125.6043 14.10239259969147"
      },
      "geometry": {
        "type": "Point",
        "coordinates": [
          21.649093298651064,
          33.01929141889555
        ]
      }
    },
    {
      "type": "Feature",
      "properties": {
        "norad_id": 30465,
        "name": "FENGYUN 1C DEB",
        "group": "fengyun-1c-debris",
        "lat": 47.28581567179373,
        "lon": -105.30956236224846,
        "alt_km": 770.9137263484736,
        "timestamp": "2025-12-02T23:34:15.792927+00:00",
        "meta_object_name": "FENGYUN 1C DEB",
        "meta_object_id": "1999-025AGC",
        "meta_epoch": "2025-12-02T04:49:51.416256",
        "meta_mean_motion": 14.33700438,
        "meta_eccentricity": 0.0017362,
        "meta_inclination": 98.8306,
        "meta_ra_of_asc_node": 64.2001,
        "meta_arg_of_pericenter": 63.9274,
        "meta_mean_anomaly": 359.8999,
        "meta_ephemeris_type": 0,
        "meta_classification_type": "U",
        "meta_norad_cat_id": 30465,
        "meta_element_set_no": 999,
        "meta_rev_at_epoch": 97207,
        "meta_bstar": 0.0021790788,
        "meta_mean_motion_dot": 6.016e-05,
        "meta_mean_motion_ddot": 0,
        "tle_line1": "1 30465U 99025AGC 25336.20128954  .00006016  00000+0  21791-2 0  9997",
        "tle_line2": "2 30465  98.8306  64.2001 0017362  63.9274 359.8999 14.33700438972077"
      },
      "geometry": {
        "type": "Point",
        "coordinates": [
          -105.30956236224846,
          47.28581567179373
        ]
      }
    },
    {
      "type": "Feature",
      "properties": {
        "norad_id": 30466,
        "name": "FENGYUN 1C DEB",
        "group": "fengyun-1c-debris",
        "lat": 66.87421025343404,
        "lon": -141.9192587724649,
        "alt_km": 766.2800263419231,
        "timestamp": "2025-12-02T23:34:15.792937+00:00",
        "meta_object_name": "FENGYUN 1C DEB",
        "meta_object_id": "1999-025AGD",
        "meta_epoch": "2025-12-02T01:22:36.214176",
        "meta_mean_motion": 14.2243611,
        "meta_eccentricity": 0.0117194,
        "meta_inclination": 98.6572,
        "meta_ra_of_asc_node": 16.2719,
        "meta_arg_of_pericenter": 55.2606,
        "meta_mean_anomaly": 2.247,
        "meta_ephemeris_type": 0,
        "meta_classification_type": "U",
        "meta_norad_cat_id": 30466,
        "meta_element_set_no": 999,
        "meta_rev_at_epoch": 97199,
        "meta_bstar": 0.0014917954,
        "meta_mean_motion_dot": 3.524e-05,
        "meta_mean_motion_ddot": 0,
        "tle_line1": "1 30466U 99025AGD 25336.05736359  .00003524  00000+0  14918-2 0  9999",
        "tle_line2": "2 30466  98.6572  16.2719 0117194  55.2606   2.2470 14.22436110971995"
      },
      "geometry": {
        "type": "Point",
        "coordinates": [
          -141.9192587724649,
          66.87421025343404
        ]
      }
    },
    {
      "type": "Feature",
      "properties": {
        "norad_id": 30467,
        "name": "FENGYUN 1C DEB",
        "group": "fengyun-1c-debris",
        "lat": 80.07979925116328,
        "lon": -56.12394263765235,
        "alt_km": 810.9053004004163,
        "timestamp": "2025-12-02T23:34:15.792946+00:00",
        "meta_object_name": "FENGYUN 1C DEB",
        "meta_object_id": "1999-025AGE",
        "meta_epoch": "2025-12-02T08:01:04.871424",
        "meta_mean_motion": 14.17216855,
        "meta_eccentricity": 0.0065292,
        "meta_inclination": 98.6804,
        "meta_ra_of_asc_node": 4.1119,
        "meta_arg_of_pericenter": 156.9671,
        "meta_mean_anomaly": 224.4856,
        "meta_ephemeris_type": 0,
        "meta_classification_type": "U",
        "meta_norad_cat_id": 30467,
        "meta_element_set_no": 999,
        "meta_rev_at_epoch": 97030,
        "meta_bstar": 0.0010819,
        "meta_mean_motion_dot": 2.187e-05,
        "meta_mean_motion_ddot": 0,
        "tle_line1": "1 30467U 99025AGE 25336.33408416  .00002187  00000+0  10819-2 0  9991",
        "tle_line2": "2 30467  98.6804   4.1119 0065292 156.9671 224.4856 14.17216855970302"
      },
      "geometry": {
        "type": "Point",
        "coordinates": [
          -56.12394263765235,
          80.07979925116328
        ]
      }
    }
  ]
}